{"type":"FeatureCollection", "features": [
{"type":"Feature","geometry":{"type":"Polygon","coordinates":[[[127.305,36.583],[127.3,36.586],[127.305,36.5915],[127.3065,36.602],[127.301,36.6075],[127.302,36.613],[127.299,36.6185],[127.2965,36.619],[127.2965,36.624],[127.292,36.625],[127.2905,36.63],[127.292,36.636],[127.287,36.636],[127.285,36.634],[127.2795,36.6335],[127.2795,36.6295],[127.2735,36.623],[127.268,36.6205],[127.2645,36.621],[127.259,36.6185],[127.2595,36.6145],[127.2655,36.612],[127.269,36.604],[127.27,36.5985],[127.272,36.597],[127.282,36.596],[127.291,36.5855],[127.288,36.5835],[127.289,36.58],[127.293,36.58],[127.299,36.5775],[127.3015,36.579],[127.305,36.583]]]},"properties":{"name":"조치원읍","base_year":"2018","name_eng":"Jochiwon-eup","code":"2901011"}},
{"type":"Feature","geometry":{"type":"Polygon","coordinates":[[[127.2625,36.4785],[127.2565,36.4755],[127.2575,36.4715],[127.2535,36.466],[127.2455,36.4635],[127.237,36.4715],[127.241,36.476],[127.2355,36.4725],[127.235,36.4705],[127.2415,36.4645],[127.2445,36.4605],[127.255,36.4595],[127.259,36.4625],[127.264,36.4635],[127.27,36.462],[127.272,36.464],[127.2635,36.466],[127.267,36.472],[127.2905,36.482],[127.2935,36.485],[127.301,36.495],[127.3065,36.5],[127.311,36.503],[127.3135,36.5055],[127.3215,36.5085],[127.3475,36.5135],[127.3465,36.5175],[127.328,36.5165],[127.325,36.5175],[127.3205,36.5255],[127.3045,36.532],[127.3025,36.5335],[127.3005,36.5405],[127.2965,36.5465],[127.2845,36.556],[127.2735,36.5555],[127.269,36.5495],[127.2665,36.5525],[127.2615,36.552],[127.254,36.5505],[127.244,36.553],[127.2415,36.5515],[127.231,36.5545],[127.2185,36.553],[127.218,36.5475],[127.2125,36.5405],[127.2145,36.5365],[127.212,36.534],[127.2135,36.531],[127.2245,36.53],[127.2275,36.5335],[127.234,36.533],[127.2385,36.5355],[127.244,36.5325],[127.2485,36.528],[127.252,36.5265],[127.2615,36.5255],[127.2675,36.523],[127.2645,36.5205],[127.2655,36.5165],[127.2685,36.5145],[127.2675,36.51],[127.273,36.507],[127.2775,36.51],[127.2785,36.5055],[127.2705,36.4995],[127.2685,36.4935],[127.266,36.492],[127.2715,36.4875],[127.273,36.483],[127.271,36.4805],[127.2625,36.4785]]]},"properties":{"name":"연기면","base_year":"2018","name_eng":"Yeongimyeon","code":"2901031"}},
{"type":"Feature","geometry":{"type":"Polygon","coordinates":[[[127.3015,36.579],[127.306,36.574],[127.3065,36.5705],[127.302,36.5645],[127.302,36.56],[127.2995,36.5565],[127.2965,36.5465],[127.3005,36.5405],[127.3025,36.5335],[127.3045,36.532],[127.3205,36.5255],[127.325,36.5175],[127.328,36.5165],[127.3465,36.5175],[127.3595,36.519],[127.3635,36.5225],[127.362,36.526],[127.355,36.53],[127.3555,36.5375],[127.354,36.5415],[127.3545,36.5465],[127.359,36.55],[127.3555,36.5525],[127.3525,36.562],[127.347,36.5645],[127.337,36.563],[127.335,36.568],[127.3365,36.57],[127.332,36.5745],[127.3265,36.5765],[127.3215,36.584],[127.313,36.583],[127.305,36.583],[127.3015,36.579]]]},"properties":{"name":"연동면","base_year":"2018","name_eng":"Yeondongmyeon","code":"2901032"}},
{"type":"Feature","geometry":{"type":"Polygon","coordinates":[[[127.396,36.4915],[127.4,36.4935],[127.41,36.4955],[127.408,36.5035],[127.409,36.5095],[127.405,36.512],[127.404,36.517],[127.3975,36.5205],[127.4015,36.5235],[127.4085,36.5235],[127.4085,36.527],[127.4055,36.5315],[127.405,36.5375],[127.402,36.541],[127.3925,36.54],[127.3845,36.541],[127.383,36.548],[127.3785,36.55],[127.378,36.5555],[127.3725,36.5595],[127.3765,36.561],[127.377,36.568],[127.371,36.5665],[127.3605,36.5625],[127.3525,36.562],[127.3555,36.5525],[127.359,36.55],[127.3545,36.5465],[127.354,36.5415],[127.3555,36.5375],[127.355,36.53],[127.362,36.526],[127.3635,36.5225],[127.3595,36.519],[127.364,36.516],[127.363,36.51],[127.354,36.502],[127.3535,36.4965],[127.3635,36.491],[127.369,36.4895],[127.3775,36.4955],[127.3805,36.4995],[127.384,36.5],[127.396,36.4915]]]},"properties":{"name":"부강면","base_year":"2018","name_eng":"Bugangmyeon","code":"2901033"}},
{"type":"Feature","geometry":{"type":"Polygon","coordinates":[[[127.341,36.431],[127.3405,36.4355],[127.345,36.4445],[127.3495,36.448],[127.3535,36.448],[127.3585,36.456],[127.3565,36.4635],[127.3595,36.4665],[127.364,36.475],[127.359,36.4825],[127.36,36.4885],[127.369,36.4895],[127.3635,36.491],[127.3535,36.4965],[127.354,36.502],[127.363,36.51],[127.364,36.516],[127.3595,36.519],[127.3465,36.5175],[127.3475,36.5135],[127.3215,36.5085],[127.3135,36.5055],[127.311,36.503],[127.318,36.501],[127.321,36.497],[127.318,36.4885],[127.3175,36.481],[127.306,36.4795],[127.2975,36.477],[127.294,36.4745],[127.289,36.474],[127.2825,36.4685],[127.277,36.4675],[127.272,36.464],[127.27,36.462],[127.264,36.4635],[127.259,36.4625],[127.255,36.4595],[127.2445,36.4605],[127.2405,36.46],[127.233,36.4565],[127.228,36.45],[127.2255,36.4385],[127.2185,36.4355],[127.2125,36.4355],[127.2175,36.4335],[127.2195,36.431],[127.225,36.4265],[127.2255,36.4225],[127.2315,36.422],[127.2365,36.4185],[127.2425,36.4185],[127.2445,36.4145],[127.251,36.407],[127.257,36.408],[127.2595,36.4105],[127.26,36.4155],[127.2655,36.417],[127.2755,36.414],[127.282,36.4145],[127.291,36.416],[127.2955,36.42],[127.2965,36.423],[127.3035,36.4245],[127.311,36.4245],[127.317,36.4205],[127.322,36.4235],[127.3265,36.422],[127.341,36.431]]]},"properties":{"name":"금남면","base_year":"2018","name_eng":"Geumnam-myeon","code":"2901034"}},
{"type":"Feature","geometry":{"type":"Polygon","coordinates":[[[127.2185,36.553],[127.2185,36.5585],[127.216,36.568],[127.213,36.5725],[127.212,36.5785],[127.2075,36.5785],[127.2035,36.5725],[127.203,36.5675],[127.1995,36.565],[127.194,36.565],[127.187,36.553],[127.1915,36.5475],[127.185,36.5435],[127.1785,36.5455],[127.174,36.542],[127.1725,36.536],[127.1755,36.529],[127.1825,36.5215],[127.174,36.5155],[127.1705,36.5115],[127.17,36.509],[127.176,36.5055],[127.1775,36.5025],[127.1735,36.499],[127.177,36.4925],[127.1835,36.4935],[127.1885,36.4925],[127.1945,36.4895],[127.195,36.4845],[127.1905,36.4795],[127.1945,36.469],[127.1985,36.4655],[127.2035,36.465],[127.2045,36.4595],[127.203,36.456],[127.1985,36.452],[127.2015,36.449],[127.201,36.441],[127.199,36.44],[127.207,36.436],[127.2125,36.4355],[127.2185,36.4355],[127.2255,36.4385],[127.228,36.45],[127.233,36.4565],[127.2405,36.46],[127.2445,36.4605],[127.2415,36.4645],[127.235,36.4705],[127.2355,36.4725],[127.241,36.476],[127.244,36.4785],[127.242,36.485],[127.2395,36.4875],[127.2365,36.4965],[127.231,36.4995],[127.2315,36.5025],[127.2275,36.507],[127.227,36.511],[127.2235,36.5145],[127.2305,36.5265],[127.2245,36.53],[127.2135,36.531],[127.212,36.534],[127.2145,36.5365],[127.2125,36.5405],[127.218,36.5475],[127.2185,36.553]]]},"properties":{"name":"장군면","base_year":"2018","name_eng":"Janggunmyeon","code":"2901035"}},
{"type":"Feature","geometry":{"type":"Polygon","coordinates":[[[127.259,36.6185],[127.2515,36.6205],[127.2465,36.6185],[127.2355,36.619],[127.228,36.6175],[127.2255,36.6155],[127.2215,36.62],[127.2095,36.62],[127.2035,36.616],[127.197,36.6135],[127.1975,36.61],[127.1965,36.6045],[127.1925,36.6005],[127.1925,36.598],[127.189,36.5945],[127.1915,36.594],[127.1895,36.587],[127.193,36.581],[127.2005,36.5825],[127.2055,36.581],[127.2075,36.5785],[127.212,36.5785],[127.213,36.5725],[127.216,36.568],[127.2185,36.5585],[127.2185,36.553],[127.231,36.5545],[127.2415,36.5515],[127.244,36.553],[127.254,36.5505],[127.2615,36.552],[127.2665,36.5525],[127.269,36.5495],[127.2735,36.5555],[127.2845,36.556],[127.2965,36.5465],[127.2995,36.5565],[127.302,36.56],[127.302,36.5645],[127.3065,36.5705],[127.306,36.574],[127.3015,36.579],[127.299,36.5775],[127.293,36.58],[127.289,36.58],[127.288,36.5835],[127.291,36.5855],[127.282,36.596],[127.272,36.597],[127.27,36.5985],[127.269,36.604],[127.2655,36.612],[127.2595,36.6145],[127.259,36.6185]]]},"properties":{"name":"연서면","base_year":"2018","name_eng":"Yeonseomyeon","code":"2901036"}},
{"type":"Feature","geometry":{"type":"Polygon","coordinates":[[[127.2095,36.62],[127.209,36.626],[127.205,36.629],[127.203,36.6345],[127.204,36.64],[127.202,36.644],[127.2045,36.648],[127.2,36.6565],[127.2015,36.66],[127.206,36.6615],[127.2085,36.6655],[127.206,36.6695],[127.2085,36.675],[127.214,36.67],[127.219,36.671],[127.2195,36.675],[127.216,36.6815],[127.216,36.684],[127.2205,36.6875],[127.2255,36.688],[127.233,36.683],[127.2415,36.685],[127.2485,36.691],[127.248,36.695],[127.2455,36.696],[127.2415,36.7015],[127.237,36.7045],[127.2365,36.7075],[127.232,36.709],[127.2285,36.708],[127.2235,36.7115],[127.2235,36.7155],[127.216,36.716],[127.208,36.719],[127.204,36.7105],[127.201,36.7105],[127.1995,36.705],[127.1965,36.7025],[127.189,36.703],[127.178,36.7075],[127.177,36.7105],[127.169,36.708],[127.163,36.711],[127.16,36.7075],[127.155,36.709],[127.151,36.706],[127.1545,36.698],[127.157,36.6955],[127.1605,36.6925],[127.161,36.688],[127.164,36.6785],[127.1585,36.673],[127.155,36.6645],[127.159,36.6615],[127.1605,36.656],[127.1545,36.653],[127.1535,36.6435],[127.158,36.6355],[127.156,36.63],[127.159,36.624],[127.1545,36.624],[127.1505,36.6195],[127.156,36.615],[127.155,36.612],[127.156,36.606],[127.158,36.6065],[127.166,36.6025],[127.1725,36.597],[127.1815,36.5955],[127.1845,36.591],[127.189,36.5945],[127.1925,36.598],[127.1925,36.6005],[127.1965,36.6045],[127.1975,36.61],[127.197,36.6135],[127.2035,36.616],[127.2095,36.62]]]},"properties":{"name":"전의면","base_year":"2018","name_eng":"Jeonui-myeon","code":"2901037"}},
{"type":"Feature","geometry":{"type":"Polygon","coordinates":[[[127.2795,36.6335],[127.2755,36.64],[127.283,36.6425],[127.2815,36.645],[127.286,36.6515],[127.2885,36.659],[127.2995,36.662],[127.305,36.6675],[127.3075,36.682],[127.304,36.685],[127.302,36.6855],[127.3015,36.686],[127.2995,36.686],[127.2965,36.686],[127.294,36.6865],[127.292,36.687],[127.2895,36.688],[127.2855,36.6905],[127.284,36.6905],[127.2815,36.6905],[127.2775,36.6915],[127.2765,36.692],[127.2765,36.6925],[127.276,36.6935],[127.274,36.695],[127.2735,36.695],[127.2735,36.6955],[127.271,36.6945],[127.2705,36.6945],[127.27,36.694],[127.265,36.692],[127.2575,36.6925],[127.251,36.697],[127.248,36.695],[127.2485,36.691],[127.2415,36.685],[127.233,36.683],[127.2255,36.688],[127.2205,36.6875],[127.216,36.684],[127.216,36.6815],[127.2195,36.675],[127.219,36.671],[127.214,36.67],[127.2085,36.675],[127.206,36.6695],[127.2085,36.6655],[127.206,36.6615],[127.2015,36.66],[127.2,36.6565],[127.2045,36.648],[127.202,36.644],[127.204,36.64],[127.203,36.6345],[127.205,36.629],[127.209,36.626],[127.2095,36.62],[127.2215,36.62],[127.2255,36.6155],[127.228,36.6175],[127.2355,36.619],[127.2465,36.6185],[127.2515,36.6205],[127.259,36.6185],[127.2645,36.621],[127.268,36.6205],[127.2735,36.623],[127.2795,36.6295],[127.2795,36.6335]]]},"properties":{"name":"전동면","base_year":"2018","name_eng":"Jeondong-myeon","code":"2901038"}},
{"type":"Feature","geometry":{"type":"Polygon","coordinates":[[[127.208,36.719],[127.205,36.721],[127.203,36.726],[127.1955,36.7285],[127.1875,36.728],[127.1845,36.7295],[127.1735,36.7285],[127.171,36.732],[127.1645,36.734],[127.1595,36.733],[127.1575,36.7275],[127.15,36.726],[127.149,36.7205],[127.1315,36.7105],[127.128,36.709],[127.136,36.705],[127.1405,36.6975],[127.144,36.689],[127.1565,36.691],[127.157,36.6955],[127.1545,36.698],[127.151,36.706],[127.155,36.709],[127.16,36.7075],[127.163,36.711],[127.169,36.708],[127.177,36.7105],[127.178,36.7075],[127.189,36.703],[127.1965,36.7025],[127.1995,36.705],[127.201,36.7105],[127.204,36.7105],[127.208,36.719]]]},"properties":{"name":"소정면","base_year":"2018","name_eng":"Sojeong-myeon","code":"2901039"}},
{"type":"Feature","geometry":{"type":"Polygon","coordinates":[[[127.2615,36.5255],[127.26,36.523],[127.254,36.5195],[127.252,36.514],[127.2525,36.507],[127.2545,36.506],[127.255,36.5005],[127.252,36.499],[127.2575,36.494],[127.266,36.492],[127.2685,36.4935],[127.2705,36.4995],[127.2785,36.5055],[127.2775,36.51],[127.273,36.507],[127.2675,36.51],[127.2685,36.5145],[127.2655,36.5165],[127.2645,36.5205],[127.2675,36.523],[127.2615,36.5255]]]},"properties":{"name":"도담동","base_year":"2018","name_eng":"Dodam-dong","code":"2901053"}},
{"type":"Feature","geometry":{"type":"Polygon","coordinates":[[[127.2525,36.507],[127.2415,36.5085],[127.24,36.4995],[127.252,36.499],[127.255,36.5005],[127.2545,36.506],[127.2525,36.507]]]},"properties":{"name":"종촌동","base_year":"2018","name_eng":"Jongchon-dong","code":"2901056"}},
{"type":"Feature","geometry":{"type":"Polygon","coordinates":[[[127.272,36.464],[127.277,36.4675],[127.2825,36.4685],[127.289,36.474],[127.294,36.4745],[127.2975,36.477],[127.306,36.4795],[127.3175,36.481],[127.318,36.4885],[127.321,36.497],[127.318,36.501],[127.311,36.503],[127.3065,36.5],[127.301,36.495],[127.2935,36.485],[127.2905,36.482],[127.267,36.472],[127.2635,36.466],[127.272,36.464]]]},"properties":{"name":"보람동","base_year":"2018","name_eng":"Boram-dong","code":"2901058"}},
{"type":"Feature","geometry":{"type":"Polygon","coordinates":[[[127.2485,36.528],[127.2465,36.523],[127.243,36.52],[127.2415,36.516],[127.2415,36.5085],[127.2525,36.507],[127.252,36.514],[127.254,36.5195],[127.26,36.523],[127.2615,36.5255],[127.252,36.5265],[127.2485,36.528]]]},"properties":{"name":"아름동","base_year":"2018","name_eng":"Areum-dong","code":"2901059"}},
{"type":"Feature","geometry":{"type":"Polygon","coordinates":[[[127.2245,36.53],[127.2305,36.5265],[127.2235,36.5145],[127.227,36.511],[127.2275,36.507],[127.2315,36.5025],[127.231,36.4995],[127.24,36.4995],[127.2415,36.5085],[127.2415,36.516],[127.243,36.52],[127.2465,36.523],[127.2485,36.528],[127.244,36.5325],[127.2385,36.5355],[127.234,36.533],[127.2275,36.5335],[127.2245,36.53]]]},"properties":{"name":"고운동","base_year":"2018","name_eng":"Goun-dong","code":"2901060"}},
{"type":"Feature","geometry":{"type":"Polygon","coordinates":[[[127.2625,36.4785],[127.259,36.4835],[127.244,36.4785],[127.241,36.476],[127.237,36.4715],[127.2455,36.4635],[127.2535,36.466],[127.2575,36.4715],[127.2565,36.4755],[127.2625,36.4785]]]},"properties":{"name":"한솔동","base_year":"2018","name_eng":"Hansoldong","code":"2901061"}},
{"type":"Feature","geometry":{"type":"Polygon","coordinates":[[[127.266,36.492],[127.2575,36.494],[127.252,36.499],[127.24,36.4995],[127.231,36.4995],[127.2365,36.4965],[127.2395,36.4875],[127.242,36.485],[127.244,36.4785],[127.259,36.4835],[127.2625,36.4785],[127.271,36.4805],[127.273,36.483],[127.2715,36.4875],[127.266,36.492]]]},"properties":{"name":"새롬동","base_year":"2018","name_eng":"Saerom-dong","code":"2901062"}}
]}